NORAD_CAT_ID,OBJECT_NAME,OBJECT_TYPE,EPOCH,MEAN_MOTION,ECCENTRICITY,INCLINATION,RA_OF_ASC_NODE,ARG_OF_PERICENTER,MEAN_ANOMALY,BSTAR,MEAN_MOTION_DOT,MEAN_MOTION_DDOT,TLE_LINE0,TLE_LINE1,TLE_LINE2,SEMIMAJOR_AXIS,PERIOD,APOGEE,PERIGEE,DECAYED
51108.0,STARLINK-3362,PAYLOAD,2023-03-07 07:36:47,15.08829063,0.000138,53.2143,179.9042,120.2147,239.8982,-0.00014423,-2.582e-05,0.0,0 STARLINK-3362,1 51108U 22005E   23066.31721836 -.00002582  00000-0 -14423-3 0  9998,2 51108  53.2143 179.9042 0001380 120.2147 239.8982 15.08829063 64166,6917.914,95.438,540.733,538.824,0.0
51108.0,STARLINK-3362,PAYLOAD,2023-03-07 15:33:43,15.08849181,0.0001615,53.2143,178.4195,99.0582,261.0593,0.00029026,4.336e-05,0.0,0 STARLINK-3362,1 51108U 22005E   23066.64841515  .00004336  00000-0  29026-3 0  9993,2 51108  53.2143 178.4195 0001615  99.0582 261.0593 15.08849181 64210,6917.852,95.437,540.835,538.6,0.0
51108.0,STARLINK-3362,PAYLOAD,2023-03-08 10:38:21,15.08840223,0.0001322,53.2153,174.8536,86.4746,273.6397,0.00021448,3.127e-05,0.0,0 STARLINK-3362,1 51108U 22005E   23067.44330077  .00003127  00000-0  21448-3 0  9995,2 51108  53.2153 174.8536 0001322  86.4746 273.6397 15.08840223 64339,6917.88,95.438,540.659,538.83,0.0
51108.0,STARLINK-3362,PAYLOAD,2023-03-08 16:59:53,15.08848555,0.0001706,53.2149,173.6582,123.0644,237.0512,0.00067461,0.00010467,0.0,0 STARLINK-3362,1 51108U 22005E   23067.70825819  .00010467  00000-0  67461-3 0  9997,2 51108  53.2149 173.6582 0001706 123.0644 237.0512 15.08848555 64376,6917.854,95.437,540.899,538.539,0.0
51108.0,STARLINK-3362,PAYLOAD,2023-03-09 16:50:40,15.08877888,0.000112,53.2161,169.1994,125.6243,234.4854,0.0014205,0.00022415,0.0,0 STARLINK-3362,1 51108U 22005E   23068.70185253  .00022415  00000-0  14205-2 0  9992,2 51108  53.2161 169.1994 0001120 125.6243 234.4854 15.08877888 64528,6917.765,95.435,540.404,538.855,0.0
51108.0,STARLINK-3362,PAYLOAD,2023-03-09 23:12:12,15.0886997,0.0001167,53.2169,168.0072,74.5987,285.5134,0.00097953,0.00015348,0.0,0 STARLINK-3362,1 51108U 22005E   23068.96680852  .00015348  00000-0  97953-3 0  9994,2 51108  53.2169 168.0072 0001167  74.5987 285.5134 15.08869970 64564,6917.789,95.436,540.461,538.846,0.0
51108.0,STARLINK-3362,PAYLOAD,2023-03-10 10:19:54,15.08846262,0.0001811,53.2175,165.9329,104.767,255.3523,-7.8761e-05,-1.542e-05,0.0,0 STARLINK-3362,1 51108U 22005E   23069.43049664 -.00001542  00000-0 -78761-4 0  9997,2 51108  53.2175 165.9329 0001811 104.7670 255.3523 15.08846262 64637,6917.861,95.437,540.979,538.473,0.0
51108.0,STARLINK-3362,PAYLOAD,2023-03-10 16:41:26,15.08856508,0.0001356,53.2154,164.7408,102.5533,257.5611,0.00048313,7.413e-05,0.0,0 STARLINK-3362,1 51108U 22005E   23069.69545090  .00007413  00000-0  48313-3 0  9999,2 51108  53.2154 164.7408 0001356 102.5533 257.5611 15.08856508 64677,6917.83,95.437,540.633,538.757,0.0
51108.0,STARLINK-3362,PAYLOAD,2023-03-10 23:03:00,15.08823717,0.0002344,53.2158,163.5507,97.5706,262.5552,-0.00018563,-3.24e-05,0.0,0 STARLINK-3362,1 51108U 22005E   23069.96042195 -.00003240  00000-0 -18563-3 0  9997,2 51108  53.2158 163.5507 0002344  97.5706 262.5552 15.08823717 64712,6917.93,95.439,541.417,538.174,0.0
51108.0,STARLINK-3362,PAYLOAD,2023-03-11 06:59:56,15.08821817,0.0001398,53.2153,162.0659,113.0393,247.0747,0.00025071,3.702e-05,0.0,0 STARLINK-3362,1 51108U 22005E   23070.29162385  .00003702  00000-0  25071-3 0  9992,2 51108  53.2153 162.0659 0001398 113.0393 247.0747 15.08821817 64761,6917.936,95.439,540.768,538.834,0.0
51108.0,STARLINK-3362,PAYLOAD,2023-03-11 10:10:42,15.08829648,0.0001954,53.2146,161.4708,108.8538,251.2667,0.00044118,6.738e-05,0.0,0 STARLINK-3362,1 51108U 22005E   23070.42410479  .00006738  00000-0  44118-3 0  9992,2 51108  53.2146 161.4708 0001954 108.8538 251.2667 15.08829648 63680,6917.912,95.438,541.129,538.425,0.0
51108.0,STARLINK-3362,PAYLOAD,2023-03-11 13:21:29,15.08832287,0.0001907,53.2155,160.8779,107.9115,252.2085,0.0012737,0.00020037,0.0,0 STARLINK-3362,1 51108U 22005E   23070.55658629  .00020037  00000-0  12737-2 0  9996,2 51108  53.2155 160.8779 0001907 107.9115 252.2085 15.08832287 64803,6917.904,95.438,541.088,538.45,0.0
51108.0,STARLINK-3362,PAYLOAD,2023-03-12 06:50:44,15.08837851,0.0001592,53.216,157.6065,117.4282,242.6872,0.00077721,0.00012102,0.0,0 STARLINK-3362,1 51108U 22005E   23071.28523168  .00012102  00000-0  77721-3 0  9995,2 51108  53.2160 157.6065 0001592 117.4282 242.6872 15.08837851 64913,6917.887,95.438,540.853,538.651,0.0
51108.0,STARLINK-3362,PAYLOAD,2023-03-12 11:36:53,15.08833248,0.000156,53.2151,156.7132,98.516,261.6009,0.00044487,6.798e-05,0.0,0 STARLINK-3362,1 51108U 22005E   23071.48395444  .00006798  00000-0  44487-3 0  9998,2 51108  53.2151 156.7132 0001560  98.5160 261.6009 15.08833248 64949,6917.901,95.438,540.845,538.687,0.0
51108.0,STARLINK-3362,PAYLOAD,2023-03-12 13:12:16,15.08837332,0.0001494,53.2146,156.416,96.3016,263.8146,0.00057669,8.901e-05,0.0,0 STARLINK-3362,1 51108U 22005E   23071.55019419  .00008901  00000-0  57669-3 0  9995,2 51108  53.2146 156.4160 0001494  96.3016 263.8146 15.08837332 63856,6917.889,95.438,540.787,538.72,0.0
51108.0,STARLINK-3362,PAYLOAD,2023-03-13 05:06:08,15.08832071,0.0001682,53.2154,153.4438,100.7535,259.3647,0.00030864,4.626e-05,0.0,0 STARLINK-3362,1 51108U 22005E   23072.21260065  .00004626  00000-0  30864-3 0  9992,2 51108  53.2154 153.4438 0001682 100.7535 259.3647 15.08832071 65050,6917.905,95.438,540.933,538.606,0.0
51108.0,STARLINK-3362,PAYLOAD,2023-03-14 04:56:55,15.08849608,0.0001722,53.215,148.9823,85.2849,274.834,0.0006457,0.00010006,0.0,0 STARLINK-3362,1 51108U 22005E   23073.20620145  .00010006  00000-0  64570-3 0  9991,2 51108  53.2150 148.9823 0001722  85.2849 274.8340 15.08849608 65206,6917.851,95.437,540.907,538.525,0.0
51108.0,STARLINK-3362,PAYLOAD,2023-03-14 11:18:28,15.0886143,0.0001674,53.2143,147.7918,82.3244,277.7938,0.00085457,0.00013347,0.0,0 STARLINK-3362,1 51108U 22005E   23073.47115762  .00013347  00000-0  85457-3 0  9992,2 51108  53.2143 147.7918 0001674  82.3244 277.7938 15.08861430 65249,6917.815,95.436,540.838,538.522,0.0
51108.0,STARLINK-3362,PAYLOAD,2023-03-14 14:29:13,15.08876668,0.0001631,53.2146,147.1957,80.1078,280.0098,0.0012873,0.00020279,0.0,0 STARLINK-3362,1 51108U 22005E   23073.60363391  .00020279  00000-0  12873-2 0  9993,2 51108  53.2146 147.1957 0001631  80.1078 280.0098 15.08876668 65268,6917.768,95.435,540.762,538.505,0.0
51108.0,STARLINK-3362,PAYLOAD,2023-03-15 00:01:32,15.08870129,0.0001429,53.2146,145.4122,92.3795,267.7361,0.00064071,9.932e-05,0.0,0 STARLINK-3362,1 51108U 22005E   23074.00106773  .00009932  00000-0  64071-3 0  9998,2 51108  53.2146 145.4122 0001429  92.3795 267.7361 15.08870129 65327,6917.788,95.436,540.642,538.665,0.0
51108.0,STARLINK-3362,PAYLOAD,2023-03-15 11:09:13,15.08884304,0.0001576,53.2143,143.3316,83.035,277.0821,0.00091404,0.00014306,0.0,0 STARLINK-3362,1 51108U 22005E   23074.46473722  .00014306  00000-0  91404-3 0  9990,2 51108  53.2143 143.3316 0001576  83.0350 277.0821 15.08884304 65395,6917.745,95.435,540.7,538.52,0.0
51108.0,STARLINK-3362,PAYLOAD,2023-03-16 04:38:27,15.0885603,0.0001868,53.2155,140.058,120.918,239.1996,0.0004292,6.552e-05,0.0,0 STARLINK-3362,1 51108U 22005E   23075.19337659  .00006552  00000-0  42920-3 0  9992,2 51108  53.2155 140.0580 0001868 120.9180 239.1996 15.08856030 65501,6917.831,95.437,540.989,538.404,0.0
51108.0,STARLINK-3362,PAYLOAD,2023-03-16 11:00:00,15.08829409,8.28e-05,53.2156,138.8692,116.2038,243.9039,-0.00018854,-3.286e-05,0.0,0 STARLINK-3362,1 51108U 22005E   23075.45834061 -.00003286  00000-0 -18854-3 0  9992,2 51108  53.2156 138.8692 0000828 116.2038 243.9039 15.08829409 65541,6917.913,95.438,540.351,539.205,0.0
51108.0,STARLINK-3362,PAYLOAD,2023-03-16 15:46:10,15.08821063,8.09e-05,53.2157,137.9787,123.5367,236.5702,-6.8338e-05,-1.374e-05,0.0,0 STARLINK-3362,1 51108U 22005E   23075.65706581 -.00001374  00000-0 -68338-4 0  9998,2 51108  53.2157 137.9787 0000809 123.5367 236.5702 15.08821063 65578,6917.938,95.439,540.363,539.244,0.0
51108.0,STARLINK-3362,PAYLOAD,2023-03-17 04:29:16,15.0881077,0.0001572,53.2167,135.5983,133.8589,226.2533,-0.00020933,-3.615e-05,0.0,0 STARLINK-3362,1 51108U 22005E   23076.18699952 -.00003615  00000-0 -20933-3 0  9998,2 51108  53.2167 135.5983 0001572 133.8589 226.2533 15.08810770 65659,6917.97,95.439,540.922,538.747,0.0
51108.0,STARLINK-3362,PAYLOAD,2023-03-17 10:50:49,15.08816131,0.0001074,53.2152,134.4133,100.3311,259.7802,9.3905e-05,1.206e-05,0.0,0 STARLINK-3362,1 51108U 22005E   23076.45196538  .00001206  00000-0  93905-4 0  9992,2 51108  53.2152 134.4133 0001074 100.3311 259.7802 15.08816131 65698,6917.953,95.439,540.561,539.075,0.0
51108.0,STARLINK-3362,PAYLOAD,2023-03-17 20:23:09,15.08827058,0.0001139,53.2165,132.6291,105.1647,254.9471,0.00091437,0.00014289,0.0,0 STARLINK-3362,1 51108U 22005E   23076.84940994  .00014289  00000-0  91437-3 0  9990,2 51108  53.2165 132.6291 0001139 105.1647 254.9471 15.08827058 65750,6917.92,95.438,540.573,538.997,0.0
51108.0,STARLINK-3362,PAYLOAD,2023-03-18 13:52:22,15.0888244,8.04e-05,53.2152,129.3563,85.9569,274.1515,0.0015963,0.00025238,0.0,0 STARLINK-3362,1 51108U 22005E   23077.57803627  .00025238  00000-0  15963-2 0  9997,2 51108  53.2152 129.3563 0000804  85.9569 274.1515 15.08882440 65868,6917.751,95.435,540.172,539.059,0.0
51108.0,STARLINK-3362,PAYLOAD,2023-03-18 20:13:55,15.08864045,0.0001566,53.215,128.1652,84.9484,275.1687,0.00076276,0.0001188,0.0,0 STARLINK-3362,1 51108U 22005E   23077.84299825  .00011880  00000-0  76276-3 0  9999,2 51108  53.2150 128.1652 0001566  84.9484 275.1687 15.08864045 65900,6917.807,95.436,540.755,538.589,0.0
51108.0,STARLINK-3362,PAYLOAD,2023-03-18 23:24:41,15.08860479,0.0001359,53.2143,127.5723,95.8707,264.244,0.0006894,0.00010707,0.0,0 STARLINK-3362,1 51108U 22005E   23077.97547581  .00010707  00000-0  68940-3 0  9994,2 51108  53.2143 127.5723 0001359  95.8707 264.2440 15.08860479 65928,6917.818,95.436,540.623,538.743,0.0
